CTC2_L_00398016-03
1 10062U 22574WX  26075.70045139  .00000000  00000+0  00000-0 0  9997
2 10062  60.0000 180.0000 0000000   0.0000   0.0000 12.77881384    16
CTC2_L_00398016-04
1 10063U 25506ZT  26075.70045139  .00000000  00000+0  00000-0 0  9996
2 10063  60.0000 180.0000 0000000   0.0000  90.0000 12.77881384    16
CTC2_L_00398017-01
1 10064U 26655OS  26075.70045139  .00000000  00000+0  00000-0 0  9993
2 10064  60.0000 192.0000 0000000   0.0000 192.0000 12.77881384    13
CTC2_L_00398017-02
1 10065U 26583A   26075.70045139  .00000000  00000+0  00000-0 0  9994
2 10065  60.0000 192.0000 0000000   0.0000 282.0000 12.77881384    14
CTC2_L_00398017-03
1 10066U 24451BC  26075.70045139  .00000000  00000+0  00000-0 0  9997
2 10066  60.0000 192.0000 0000000   0.0000  12.0000 12.77881384    16
CTC2_L_00398017-04
1 10067U 22227MO  26075.70045139  .00000000  00000+0  00000-0 0  9997
2 10067  60.0000 192.0000 0000000   0.0000 102.0000 12.77881384    17
CTC2_L_00398018-01
1 10068U 24521KB  26075.70045139  .00000000  00000+0  00000-0 0  9997
2 10068  60.0000 204.0000 0000000   0.0000 204.0000 12.77881384    15
CTC2_L_00398018-02
1 10069U 26401SX  26075.70045139  .00000000  00000+0  00000-0 0  9997
2 10069  60.0000 204.0000 0000000   0.0000 294.0000 12.77881384    15
CTC2_L_00398018-03
1 10070U 23554YH  26075.70045139  .00000000  00000+0  00000-0 0  9995
2 10070  60.0000 204.0000 0000000   0.0000  24.0000 12.77881384    18
CTC2_L_00398018-04
1 10071U 26535PE  26075.70045139  .00000000  00000+0  00000-0 0  9998
2 10071  60.0000 204.0000 0000000   0.0000 114.0000 12.77881384    19
CTC2_L_00398019-01
1 10072U 25222AC  26075.70045139  .00000000  00000+0  00000-0 0  9991
2 10072  60.0000 216.0000 0000000   0.0000 216.0000 12.77881384    16
CTC2_L_00398019-02
1 10073U 22338NV  26075.70045139  .00000000  00000+0  00000-0 0  9997
2 10073  60.0000 216.0000 0000000   0.0000 306.0000 12.77881384    17
CTC2_L_00398019-03
1 10074U 23948CH  26075.70045139  .00000000  00000+0  00000-0 0  9996
2 10074  60.0000 216.0000 0000000   0.0000  36.0000 12.77881384    18
CTC2_L_00398019-04
1 10075U 23227CL  26075.70045139  .00000000  00000+0  00000-0 0  9997
2 10075  60.0000 216.0000 0000000   0.0000 126.0000 12.77881384    19
CTC2_L_00398020-01
1 10076U 25646VA  26075.70045139  .00000000  00000+0  00000-0 0  9995
2 10076  60.0000 228.0000 0000000   0.0000 228.0000 12.77881384    16
CTC2_L_00398020-02
1 10077U 25742KL  26075.70045139  .00000000  00000+0  00000-0 0  9993
2 10077  60.0000 228.0000 0000000   0.0000 318.0000 12.77881384    17
CTC2_L_00398020-03
1 10078U 26542RF  26075.70045139  .00000000  00000+0  00000-0 0  9993
2 10078  60.0000 228.0000 0000000   0.0000  48.0000 12.77881384    18
CTC2_L_00398020-04
1 10079U 23427TD  26075.70045139  .00000000  00000+0  00000-0 0  9993
2 10079  60.0000 228.0000 0000000   0.0000 138.0000 12.77881384    19
CTC2_L_00398021-01
1 10080U 24362TQ  26075.70045139  .00000000  00000+0  00000-0 0  9994
2 10080  60.0000 240.0000 0000000   0.0000 240.0000 12.77881384    19
CTC2_L_00398021-02
1 10081U 23770TH  26075.70045139  .00000000  00000+0  00000-0 0  9997
2 10081  60.0000 240.0000 0000000   0.0000 330.0000 12.77881384    10
CTC2_L_00398021-03
1 10082U 22719TC  26075.70045139  .00000000  00000+0  00000-0 0  9990
2 10082  60.0000 240.0000 0000000   0.0000  60.0000 12.77881384    11
CTC2_L_00398021-04
1 10083U 26552OV  26075.70045139  .00000000  00000+0  00000-0 0  9990
2 10083  60.0000 240.0000 0000000   0.0000 150.0000 12.77881384    12
CTC2_L_00398022-01
1 10084U 25043VB  26075.70045139  .00000000  00000+0  00000-0 0  9995
2 10084  60.0000 252.0000 0000000   0.0000 252.0000 12.77881384    19
CTC2_L_00398022-02
1 10085U 26626DN  26075.70045139  .00000000  00000+0  00000-0 0  9994
2 10085  60.0000 252.0000 0000000   0.0000 342.0000 12.77881384    10
CTC2_L_00398022-03
1 10086U 24248ME  26075.70045139  .00000000  00000+0  00000-0 0  9993
2 10086  60.0000 252.0000 0000000   0.0000  72.0000 12.77881384    11
CTC2_L_00398022-04
1 10087U 25179KN  26075.70045139  .00000000  00000+0  00000-0 0  9998
2 10087  60.0000 252.0000 0000000   0.0000 162.0000 12.77881384    12
CTC2_L_00398023-01
1 10088U 25815MU  26075.70045139  .00000000  00000+0  00000-0 0  9996
2 10088  60.0000 264.0000 0000000   0.0000 264.0000 12.77881384    19
CTC2_L_00398023-02
1 10089U 25725UX  26075.70045139  .00000000  00000+0  00000-0 0  9997
2 10089  60.0000 264.0000 0000000   0.0000 354.0000 12.77881384    10
CTC2_L_00398023-03
1 10090U 23885LB  26075.70045139  .00000000  00000+0  00000-0 0  9994
2 10090  60.0000 264.0000 0000000   0.0000  84.0000 12.77881384    12
CTC2_L_00398023-04
1 10091U 23653BV  26075.70045139  .00000000  00000+0  00000-0 0  9998
2 10091  60.0000 264.0000 0000000   0.0000 174.0000 12.77881384    13
CTC2_L_00398024-01
1 10092U 25076YO  26075.70045139  .00000000  00000+0  00000-0 0  9990
2 10092  60.0000 276.0000 0000000   0.0000 276.0000 12.77881384    10
CTC2_L_00398024-02
1 10093U 25658KB  26075.70045139  .00000000  00000+0  00000-0 0  9997
2 10093  60.0000 276.0000 0000000   0.0000   6.0000 12.77881384    12
CTC2_L_00398024-03
1 10094U 26705ZO  26075.70045139  .00000000  00000+0  00000-0 0  9992
2 10094  60.0000 276.0000 0000000   0.0000  96.0000 12.77881384    12
CTC2_L_00398024-04
1 10095U 26520ZU  26075.70045139  .00000000  00000+0  00000-0 0  9998
2 10095  60.0000 276.0000 0000000   0.0000 186.0000 12.77881384    13
CTC2_L_00398025-01
1 10096U 24245NS  26075.70045139  .00000000  00000+0  00000-0 0  9991
2 10096  60.0000 288.0000 0000000   0.0000 288.0000 12.77881384    10
CTC2_L_00398025-02
1 10097U 22900NT  26075.70045139  .00000000  00000+0  00000-0 0  9998
2 10097  60.0000 288.0000 0000000   0.0000  18.0000 12.77881384    12
CTC2_L_00398025-03
1 10098U 26423RQ  26075.70045139  .00000000  00000+0  00000-0 0  9993
2 10098  60.0000 288.0000 0000000   0.0000 108.0000 12.77881384    13
CTC2_L_00398025-04
1 10099U 26894EA  26075.70045139  .00000000  00000+0  00000-0 0  9996
2 10099  60.0000 288.0000 0000000   0.0000 198.0000 12.77881384    13
CTC2_L_00398026-01
1 10100U 25491LK  26075.70045139  .00000000  00000+0  00000-0 0  9991
2 10100  60.0000 300.0000 0000000   0.0000 300.0000 12.77881384    16
CTC2_L_00398026-02
1 10101U 26431HS  26075.70045139  .00000000  00000+0  00000-0 0  9997
2 10101  60.0000 300.0000 0000000   0.0000  30.0000 12.77881384    17
CTC2_L_00398026-03
1 10102U 26507DK  26075.70045139  .00000000  00000+0  00000-0 0  9992
2 10102  60.0000 300.0000 0000000   0.0000 120.0000 12.77881384    18
CTC2_L_00398026-04
1 10103U 24495HN  26075.70045139  .00000000  00000+0  00000-0 0  9997
2 10103  60.0000 300.0000 0000000   0.0000 210.0000 12.77881384    19
CTC2_L_00398027-01
1 10104U 24513Z   26075.70045139  .00000000  00000+0  00000-0 0  9999
2 10104  60.0000 312.0000 0000000   0.0000 312.0000 12.77881384    16
CTC2_L_00398027-02
1 10105U 24420ZE  26075.70045139  .00000000  00000+0  00000-0 0  9997
2 10105  60.0000 312.0000 0000000   0.0000  42.0000 12.77881384    17
CTC2_L_00398027-03
1 10106U 24889KQ  26075.70045139  .00000000  00000+0  00000-0 0  9997
2 10106  60.0000 312.0000 0000000   0.0000 132.0000 12.77881384    18
CTC2_L_00398027-04
1 10107U 22083IK  26075.70045139  .00000000  00000+0  00000-0 0  9992
2 10107  60.0000 312.0000 0000000   0.0000 222.0000 12.77881384    19
CTC2_L_00398028-01
1 10108U 25019FM  26075.70045139  .00000000  00000+0  00000-0 0  9995
2 10108  60.0000 324.0000 0000000   0.0000 324.0000 12.77881384    16
CTC2_L_00398028-02
1 10109U 23954LD  26075.70045139  .00000000  00000+0  00000-0 0  9992
2 10109  60.0000 324.0000 0000000   0.0000  54.0000 12.77881384    17
CTC2_L_00398028-03
1 10110U 23401TA  26075.70045139  .00000000  00000+0  00000-0 0  9991
2 10110  60.0000 324.0000 0000000   0.0000 144.0000 12.77881384    19
CTC2_L_00398028-04
1 10111U 24573IC  26075.70045139  .00000000  00000+0  00000-0 0  9993
2 10111  60.0000 324.0000 0000000   0.0000 234.0000 12.77881384    10
CTC2_L_00398029-01
1 10112U 24421JM  26075.70045139  .00000000  00000+0  00000-0 0  9996
2 10112  60.0000 336.0000 0000000   0.0000 336.0000 12.77881384    17
CTC2_L_00398029-02
1 10113U 22173ID  26075.70045139  .00000000  00000+0  00000-0 0  9999
2 10113  60.0000 336.0000 0000000   0.0000  66.0000 12.77881384    18
CTC2_L_00398029-03
1 10114U 22318YT  26075.70045139  .00000000  00000+0  00000-0 0  9991
2 10114  60.0000 336.0000 0000000   0.0000 156.0000 12.77881384    19
CTC2_L_00398029-04
1 10115U 26254LN  26075.70045139  .00000000  00000+0  00000-0 0  9995
2 10115  60.0000 336.0000 0000000   0.0000 246.0000 12.77881384    10
CTC2_L_00398030-01
1 10116U 25165JV  26075.70045139  .00000000  00000+0  00000-0 0  9996
2 10116  60.0000 348.0000 0000000   0.0000 348.0000 12.77881384    17
CTC2_L_00398030-02
1 10117U 23237BP  26075.70045139  .00000000  00000+0  00000-0 0  9995
2 10117  60.0000 348.0000 0000000   0.0000  78.0000 12.77881384    18
CTC2_L_00398030-03
1 10118U 24728RB  26075.70045139  .00000000  00000+0  00000-0 0  9992
2 10118  60.0000 348.0000 0000000   0.0000 168.0000 12.77881384    19
CTC2_L_00398030-04
1 10119U 25292WZ  26075.70045139  .00000000  00000+0  00000-0 0  9990
2 10119  60.0000 348.0000 0000000   0.0000 258.0000 12.77881384    10
